OBJECT_NAME,OBJECT_ID,EPOCH,MEAN_MOTION,ECCENTRICITY,INCLINATION,RA_OF_ASC_NODE,ARG_OF_PERICENTER,MEAN_ANOMALY,EPHEMERIS_TYPE,CLASSIFICATION_TYPE,NORAD_CAT_ID,ELEMENT_SET_NO,REV_AT_EPOCH,BSTAR,MEAN_MOTION_DOT,MEAN_MOTION_DDOT
GEOSCAN 3 (RS92S3),2025-155T,2026-07-08T13:32:38.587200,15.36147001,.00085924,97.4545,159.7018,104.4308,255.7890,0,U,64893,999,8413,.37571433E-3,.13172E-3,0
INNOSAT 3 (RS92S0),2025-155U,2026-07-08T13:28:52.168224,15.45448499,.00083159,97.4491,161.5939,105.7475,254.4691,0,U,64894,999,8426,.66169809E-3,.31709E-3,0
KNACKSAT-2,1998-067XZ,2026-07-08T06:51:35.208288,15.61884949,.00082087,51.6260,188.2015,303.7179,56.3032,0,U,67683,999,2357,.40782476E-3,.35828E-3,0
