GEOSCAN-3 (RS92S3)
1 64893U 25155T   26189.56433550  .00013172  00000-0  37571-3 0  9995
2 64893  97.4545 159.7018 0008592 104.4308 255.7890 15.36147001 84131
INNOSAT3 (RS92S0)
1 64894U 25155U   26189.56171491  .00031709  00000-0  66170-3 0  9992
2 64894  97.4491 161.5939 0008316 105.7475 254.4691 15.45448499 84262
KNACKSAT-2
1 67683U 98067XZ  26189.28582417  .00035828  00000-0  40782-3 0  9993
2 67683  51.6260 188.2015 0008209 303.7179  56.3032 15.61884949 23577
